[{"OBJECT_NAME":"STARLINK-3572","OBJECT_ID":"2022-022AD","EPOCH":"2026-03-09T23:30:41.974272","MEAN_MOTION":15.08824831,"ECCENTRICITY":0.00015475,"INCLINATION":53.2199,"RA_OF_ASC_NODE":357.8184,"ARG_OF_PERICENTER":90.5222,"MEAN_ANOMALY":269.5948,"EPHEMERIS_TYPE":0,"CLASSIFICATION_TYPE":"U","NORAD_CAT_ID":51879,"ELEMENT_SET_NO":999,"REV_AT_EPOCH":22329,"BSTAR":0.00011589753,"MEAN_MOTION_DOT":1.556e-5,"MEAN_MOTION_DDOT":0},{"OBJECT_NAME":"LEMUR-2-MARHISYAM","OBJECT_ID":"2024-149BW","EPOCH":"2026-03-09T17:46:07.876416","MEAN_MOTION":15.0901552,"ECCENTRICITY":0.00035778,"INCLINATION":97.6912,"RA_OF_ASC_NODE":151.2662,"ARG_OF_PERICENTER":107.3271,"MEAN_ANOMALY":252.8349,"EPHEMERIS_TYPE":0,"CLASSIFICATION_TYPE":"U","NORAD_CAT_ID":60536,"ELEMENT_SET_NO":999,"REV_AT_EPOCH":8547,"BSTAR":0.00082973442,"MEAN_MOTION_DOT":0.00013075,"MEAN_MOTION_DDOT":0}]
